0 FENGYUN 1C DEB
1 35231U 99025DQP 13284.17106744  .00000033  00000-0  40387-4 0  2756
2 35231 098.9265 255.1573 0038106 082.9625 277.5879 14.14223297287358
0 FENGYUN 1C DEB
1 35231U 99025DQP 13287.70854308 -.00000032  00000-0  65310-5 0  2769
2 35231 098.9268 258.6909 0038025 073.2063 287.3275 14.14224201287851
0 FENGYUN 1C DEB
1 35231U 99025DQP 13291.74125994  .00000027  00000-0  37130-4 0  2772
2 35231 098.9280 262.7191 0037898 062.1072 298.3931 14.14224195288425
0 FENGYUN 1C DEB
1 35231U 99025DQP 13295.70322357  .00000046  00000-0  47221-4 0  2788
2 35231 098.9283 266.6780 0037746 051.0798 309.3730 14.14224649288984
